{"type": "FeatureCollection", "features": [ {"type": "Feature", "properties": {"norad_id": 37921, "name": "FENGYUN 1C DEB", "group": "fengyun-1c-debris", "lat": 25.02367055710033, "lon": 15.974862551982605, "alt_km": 913.8367073287063, "timestamp": "2025-12-04T23:34:06.012221+00:00", "meta": {"OBJECT_NAME": "FENGYUN 1C DEB", "OBJECT_ID": "1999-025ENW", "EPOCH": "2025-12-04T09:40:37.327584", "MEAN_MOTION": 13.95147982, "ECCENTRICITY": 0.0084396, "INCLINATION": 99.0234, "RA_OF_ASC_NODE": 19.6626, "ARG_OF_PERICENTER": 121.28, "MEAN_ANOMALY": 239.6661, "EPHEMERIS_TYPE": 0, "CLASSIFICATION_TYPE": "U", "NORAD_CAT_ID": 37921, "ELEMENT_SET_NO": 999, "REV_AT_EPOCH": 63031, "BSTAR": 0.00052305, "MEAN_MOTION_DOT": 6.84e-06, "MEAN_MOTION_DDOT": 0}, "tle": {"line1": "1 37921U 99025ENW 25338.40320981  .00000684  00000+0  52305-3 0  9990", "line2": "2 37921  99.0234  19.6626 0084396 121.2800 239.6661 13.95147982630310"}}, "geometry": {"type": "Point", "coordinates": [15.974862551982605, 25.02367055710033]}}, {"type": "Feature", "properties": {"norad_id": 37925, "name": "FENGYUN 1C DEB", "group": "fengyun-1c-debris", "lat": -50.30017889372029, "lon": -141.76556467498932, "alt_km": 614.849612103968, "timestamp": "2025-12-04T23:34:06.012231+00:00", "meta": {"OBJECT_NAME": "FENGYUN 1C DEB", "OBJECT_ID": "1999-025EPA", "EPOCH": "2025-12-03T08:51:08.944992", "MEAN_MOTION": 14.79858027, "ECCENTRICITY": 0.0057842, "INCLINATION": 99.0872, "RA_OF_ASC_NODE": 205.2959, "ARG_OF_PERICENTER": 11.9768, "MEAN_ANOMALY": 348.28, "EPHEMERIS_TYPE": 0, "CLASSIFICATION_TYPE": "U", "NORAD_CAT_ID": 37925, "ELEMENT_SET_NO": 999, "REV_AT_EPOCH": 65544, "BSTAR": 0.0022468503, "MEAN_MOTION_DOT": 0.00017399, "MEAN_MOTION_DDOT": 0}, "tle": {"line1": "1 37925U 99025EPA 25337.36885353  .00017399  00000+0  22469-2 0  9995", "line2": "2 37925  99.0872 205.2959 0057842  11.9768 348.2800 14.79858027655443"}}, "geometry": {"type": "Point", "coordinates": [-141.76556467498932, -50.30017889372029]}}, {"type": "Feature", "properties": {"norad_id": 37926, "name": "FENGYUN 1C DEB", "group": "fengyun-1c-debris", "lat": -78.3711040558649, "lon": 90.46865337313106, "alt_km": 786.8258019159211, "timestamp": "2025-12-04T23:34:06.012241+00:00", "meta": {"OBJECT_NAME": "FENGYUN 1C DEB", "OBJECT_ID": "1999-025EPB", "EPOCH": "2025-12-04T16:13:58.164096", "MEAN_MOTION": 14.24130452, "ECCENTRICITY": 0.0053525, "INCLINATION": 98.7245, "RA_OF_ASC_NODE": 41.9063, "ARG_OF_PERICENTER": 244.4038, "MEAN_ANOMALY": 266.8565, "EPHEMERIS_TYPE": 0, "CLASSIFICATION_TYPE": "U", "NORAD_CAT_ID": 37926, "ELEMENT_SET_NO": 999, "REV_AT_EPOCH": 74155, "BSTAR": 0.003343, "MEAN_MOTION_DOT": 7.772e-05, "MEAN_MOTION_DDOT": 0}, "tle": {"line1": "1 37926U 99025EPB 25338.67636764  .00007772  00000+0  33430-2 0  9995", "line2": "2 37926  98.7245  41.9063 0053525 244.4038 266.8565 14.24130452741558"}}, "geometry": {"type": "Point", "coordinates": [90.46865337313106, -78.3711040558649]}}, {"type": "Feature", "properties": {"norad_id": 37927, "name": "FENGYUN 1C DEB", "group": "fengyun-1c-debris", "lat": 5.167174560753638, "lon": 121.22536505820625, "alt_km": 659.0600132697919, "timestamp": "2025-12-04T23:34:06.012252+00:00", "meta": {"OBJECT_NAME": "FENGYUN 1C DEB", "OBJECT_ID": "1999-025EPC", "EPOCH": "2025-11-29T16:11:45.032064", "MEAN_MOTION": 14.70717717, "ECCENTRICITY": 0.00076239, "INCLINATION": 98.8072, "RA_OF_ASC_NODE": 116.2969, "ARG_OF_PERICENTER": 304.8102, "MEAN_ANOMALY": 55.2384, "EPHEMERIS_TYPE": 0, "CLASSIFICATION_TYPE": "U", "NORAD_CAT_ID": 37927, "ELEMENT_SET_NO": 999, "REV_AT_EPOCH": 64924, "BSTAR": 0.0038923403, "MEAN_MOTION_DOT": 0.00023758, "MEAN_MOTION_DDOT": 0}, "tle": {"line1": "1 37927U 99025EPC 25333.67482676  .00023758  00000+0  38923-2 0  9996", "line2": "2 37927  98.8072 116.2969 0007623 304.8102  55.2384 14.70717717649248"}}, "geometry": {"type": "Point", "coordinates": [121.22536505820625, 5.167174560753638]}}, {"type": "Feature", "properties": {"norad_id": 37928, "name": "FENGYUN 1C DEB", "group": "fengyun-1c-debris", "lat": -4.055854569028892, "lon": 32.66027605969063, "alt_km": 803.9561613926708, "timestamp": "2025-12-04T23:34:06.012262+00:00", "meta": {"OBJECT_NAME": "FENGYUN 1C DEB", "OBJECT_ID": "1999-025EPD", "EPOCH": "2025-12-04T09:21:10.746144", "MEAN_MOTION": 14.37056934, "ECCENTRICITY": 0.0073334, "INCLINATION": 98.9155, "RA_OF_ASC_NODE": 212.6846, "ARG_OF_PERICENTER": 57.3741, "MEAN_ANOMALY": 303.4495, "EPHEMERIS_TYPE": 0, "CLASSIFICATION_TYPE": "U", "NORAD_CAT_ID": 37928, "ELEMENT_SET_NO": 999, "REV_AT_EPOCH": 81072, "BSTAR": 0.0013776, "MEAN_MOTION_DOT": 4.172e-05, "MEAN_MOTION_DDOT": 0}, "tle": {"line1": "1 37928U 99025EPD 25338.38970771  .00004172  00000+0  13776-2 0  9996", "line2": "2 37928  98.9155 212.6846 0073334  57.3741 303.4495 14.37056934810722"}}, "geometry": {"type": "Point", "coordinates": [32.66027605969063, -4.055854569028892]}}, {"type": "Feature", "properties": {"norad_id": 38116, "name": "FENGYUN 1C DEB", "group": "fengyun-1c-debris", "lat": 41.685010618309406, "lon": 10.022155926316438, "alt_km": 862.6401705825774, "timestamp": "2025-12-04T23:34:06.012273+00:00", "meta": {"OBJECT_NAME": "FENGYUN 1C DEB", "OBJECT_ID": "1999-025EPM", "EPOCH": "2025-11-28T20:45:55.302624", "MEAN_MOTION": 14.16973073, "ECCENTRICITY": 0.0072, "INCLINATION": 98.7141, "RA_OF_ASC_NODE": 11.879, "ARG_OF_PERICENTER": 186.1596, "MEAN_ANOMALY": 351.8835, "EPHEMERIS_TYPE": 0, "CLASSIFICATION_TYPE": "U", "NORAD_CAT_ID": 38116, "ELEMENT_SET_NO": 999, "REV_AT_EPOCH": 64288, "BSTAR": 0.00050837388, "MEAN_MOTION_DOT": 1.004e-05, "MEAN_MOTION_DDOT": 0}, "tle": {"line1": "1 38116U 99025EPM 25332.86522341  .00001004  00000+0  50837-3 0  9990", "line2": "2 38116  98.7141  11.8790 0072000 186.1596 351.8835 14.16973073642884"}}, "geometry": {"type": "Point", "coordinates": [10.022155926316438, 41.685010618309406]}}, {"type": "Feature", "properties": {"norad_id": 38121, "name": "FENGYUN 1C DEB", "group": "fengyun-1c-debris", "lat": -4.321654334573636, "lon": -50.498618856667335, "alt_km": 699.4787758361963, "timestamp": "2025-12-04T23:34:06.012283+00:00", "meta": {"OBJECT_NAME": "FENGYUN 1C DEB", "OBJECT_ID": "1999-025EPS", "EPOCH": "2025-11-29T04:12:17.244576", "MEAN_MOTION": 14.2162433, "ECCENTRICITY": 0.02065546, "INCLINATION": 99.115, "RA_OF_ASC_NODE": 124.1974, "ARG_OF_PERICENTER": 166.4816, "MEAN_ANOMALY": 194.2011, "EPHEMERIS_TYPE": 0, "CLASSIFICATION_TYPE": "U", "NORAD_CAT_ID": 38121, "ELEMENT_SET_NO": 999, "REV_AT_EPOCH": 83727, "BSTAR": 0.001349076, "MEAN_MOTION_DOT": 3.628e-05, "MEAN_MOTION_DDOT": 0}, "tle": {"line1": "1 38121U 99025EPS 25333.17519959  .00003628  00000+0  13491-2 0  9990", "line2": "2 38121  99.1150 124.1974 0206554 166.4816 194.2011 14.21624330837275"}}, "geometry": {"type": "Point", "coordinates": [-50.498618856667335, -4.321654334573636]}}, {"type": "Feature", "properties": {"norad_id": 38122, "name": "FENGYUN 1C DEB", "group": "fengyun-1c-debris", "lat": -76.21817905479524, "lon": 124.98908967235836, "alt_km": 721.7404994748076, "timestamp": "2025-12-04T23:34:06.012293+00:00", "meta": {"OBJECT_NAME": "FENGYUN 1C DEB", "OBJECT_ID": "1999-025EPT", "EPOCH": "2025-12-03T06:25:51.305088", "MEAN_MOTION": 14.42594537, "ECCENTRICITY": 0.0227364, "INCLINATION": 98.317, "RA_OF_ASC_NODE": 339.9263, "ARG_OF_PERICENTER": 185.5048, "MEAN_ANOMALY": 174.3639, "EPHEMERIS_TYPE": 0, "CLASSIFICATION_TYPE": "U", "NORAD_CAT_ID": 38122, "ELEMENT_SET_NO": 999, "REV_AT_EPOCH": 67602, "BSTAR": 0.0006206, "MEAN_MOTION_DOT": 2.764e-05, "MEAN_MOTION_DDOT": 0}, "tle": {"line1": "1 38122U 99025EPT 25337.26795492  .00002764  00000+0  62060-3 0  9990", "line2": "2 38122  98.3170 339.9263 0227364 185.5048 174.3639 14.42594537676024"}}, "geometry": {"type": "Point", "coordinates": [124.98908967235836, -76.21817905479524]}}, {"type": "Feature", "properties": {"norad_id": 38124, "name": "FENGYUN 1C DEB", "group": "fengyun-1c-debris", "lat": 34.22520517633522, "lon": 118.66095469162241, "alt_km": 1370.6830081148091, "timestamp": "2025-12-04T23:34:06.012303+00:00", "meta": {"OBJECT_NAME": "FENGYUN 1C DEB", "OBJECT_ID": "1999-025EPV", "EPOCH": "2025-11-17T02:51:17.993664", "MEAN_MOTION": 13.40908773, "ECCENTRICITY": 0.03570409, "INCLINATION": 97.805, "RA_OF_ASC_NODE": 279.4801, "ARG_OF_PERICENTER": 12.4947, "MEAN_ANOMALY": 348.4759, "EPHEMERIS_TYPE": 0, "CLASSIFICATION_TYPE": "U", "NORAD_CAT_ID": 38124, "ELEMENT_SET_NO": 999, "REV_AT_EPOCH": 54238, "BSTAR": 0.00079426358, "MEAN_MOTION_DOT": 6.08e-06, "MEAN_MOTION_DDOT": 0}, "tle": {"line1": "1 38124U 99025EPV 25321.11895826  .00000608  00000+0  79426-3 0  9990", "line2": "2 38124  97.8050 279.4801 0357040  12.4947 348.4759 13.40908773542380"}}, "geometry": {"type": "Point", "coordinates": [118.66095469162241, 34.22520517633522]}}, {"type": "Feature", "properties": {"norad_id": 38130, "name": "FENGYUN 1C DEB", "group": "fengyun-1c-debris", "lat": -80.89001363684973, "lon": 102.1690655789042, "alt_km": 844.10282036836, "timestamp": "2025-12-04T23:34:06.012313+00:00", "meta": {"OBJECT_NAME": "FENGYUN 1C DEB", "OBJECT_ID": "1999-025EQB", "EPOCH": "2025-11-28T09:19:02.490528", "MEAN_MOTION": 13.7720595, "ECCENTRICITY": 0.02085156, "INCLINATION": 98.6035, "RA_OF_ASC_NODE": 25.4413, "ARG_OF_PERICENTER": 263.5047, "MEAN_ANOMALY": 94.2329, "EPHEMERIS_TYPE": 0, "CLASSIFICATION_TYPE": "U", "NORAD_CAT_ID": 38130, "ELEMENT_SET_NO": 999, "REV_AT_EPOCH": 69085, "BSTAR": 0.0016964005, "MEAN_MOTION_DOT": 1.933e-05, "MEAN_MOTION_DDOT": 0}, "tle": {"line1": "1 38130U 99025EQB 25332.38822327  .00001933  00000+0  16964-2 0  9993", "line2": "2 38130  98.6035  25.4413 0208515 263.5047  94.2329 13.77205950690851"}}, "geometry": {"type": "Point", "coordinates": [102.1690655789042, -80.89001363684973]}}]}